[{"OBJECT_NAME":"STARLINK-34830","OBJECT_ID":"2025-192B","EPOCH":"2026-03-09T17:53:24.967968","MEAN_MOTION":15.31064913,"ECCENTRICITY":0.00031616,"INCLINATION":53.1594,"RA_OF_ASC_NODE":232.0306,"ARG_OF_PERICENTER":350.889,"MEAN_ANOMALY":9.2053,"EPHEMERIS_TYPE":0,"CLASSIFICATION_TYPE":"U","NORAD_CAT_ID":65405,"ELEMENT_SET_NO":999,"REV_AT_EPOCH":2940,"BSTAR":0.0048941642,"MEAN_MOTION_DOT":0.00151602,"MEAN_MOTION_DDOT":0},{"OBJECT_NAME":"NOAA 16 DEB","OBJECT_ID":"2000-055BK","EPOCH":"2026-03-09T02:17:10.174560","MEAN_MOTION":15.30191008,"ECCENTRICITY":0.00052528,"INCLINATION":98.9831,"RA_OF_ASC_NODE":305.6383,"ARG_OF_PERICENTER":26.64,"MEAN_ANOMALY":333.5104,"EPHEMERIS_TYPE":0,"CLASSIFICATION_TYPE":"U","NORAD_CAT_ID":41128,"ELEMENT_SET_NO":999,"REV_AT_EPOCH":53406,"BSTAR":0.017668961,"MEAN_MOTION_DOT":0.00549039,"MEAN_MOTION_DDOT":0}]
